QIANFAN-17              
1 60395U 24140S   25229.19294779  .00000108  00000+0  14836-3 0  9995
2 60395  88.9846 311.5794 0015484 177.5852 182.5377 13.50964426 51419
QIANFAN-18              
1 60396U 24140T   25229.17247756  .00000099  00000+0  13512-3 0  9996
2 60396  88.9838 311.1242 0015419 161.0099 199.1631 13.50966259 51642
QIANFAN-19              
1 61552U 24185A   25228.84695915  .00000321  00000+0  16142-3 0  9997
2 61552  88.9785  91.4697 0006341 342.4908  17.6059 14.14125755 53007
QIANFAN-20              
1 61553U 24185B   25228.84990267  .00000375  00000+0  20975-3 0  9994
2 61553  88.9783  91.6743 0006822  19.6462 340.4983 14.08676907 52894
QIANFAN-21              
1 61554U 24185C   25228.85338674  .00000463  00000+0  20132-3 0  9997
2 61554  88.9699  90.8066 0012216  36.0404 324.1609 14.22377466 53218
QIANFAN-22              
1 61555U 24185D   25228.77485268  .00000169  00000+0  13488-3 0  9990
2 61555  88.9770  92.1892 0007257  12.6103 347.5249 13.86242345 52591
QIANFAN-23              
1 61556U 24185E   25228.77587243  .00000427  00000+0  20893-3 0  9992
2 61556  88.9777  91.3421 0007655 353.5566   6.5522 14.16098652 53052
QIANFAN-24              
1 61557U 24185F   25228.81508140  .00000437  00000+0  18570-3 0  9997
2 61557  88.9758  90.9357 0008707 337.0988  22.9814 14.23577575 53240
